COSMOS 2544 [GLONASS-M] 
1 44850U 19088A   26199.46983574 -.00000034  00000+0  00000+0 0  9996
2 44850  65.5825  72.6872 0012069 253.1626 106.7768  2.13102896 51383
RISAT-2BR1              
1 44857U 19089F   26199.94025792  .00001318  00000+0  10700-3 0  9993
2 44857  36.9609 283.2346 0009237  79.1312 281.0469 15.01170713361977
IHOPSAT-TD              
1 44859U 19089H   26199.38719867  .00001116  00000+0  68799-4 0  9994
2 44859  36.9655 210.3331 0004463 150.3693 209.7307 15.11960391362716
BEIDOU-3 M19            
1 44864U 19090A   26199.31615009 -.00000065  00000+0  00000+0 0  9997
2 44864  56.5859  61.7618 0016635 297.6233 226.6293  1.86231447 44811
BEIDOU-3 M20            
1 44865U 19090B   26199.24902023 -.00000064  00000+0  00000+0 0  9994
2 44865  56.5878  61.7982 0014280 312.4225 256.4049  1.86231410 44795
JCSAT-18 (KACIFIC 1)    
1 44868U 19091A   26199.63920141  .00000000  00000+0  00000+0 0  9991
2 44868   0.0110 259.2976 0000436 311.6935 105.5404  1.00266788 24323
CSG-1                   
1 44873U 19092A   26199.98384315  .00000129  00000+0  22778-4 0  9996
2 44873  97.8898  23.1274 0001451  95.2123 264.9256 14.82158476356182
CHEOPS                  
1 44874U 19092B   26199.77301421  .00000104  00000+0  30112-4 0  9995
2 44874  98.1510  27.6002 0010632   8.3398 351.7978 14.61983814350512
TIANQIN 1 (CAS-6)       
1 44879U 19093A   26199.93758470  .00000771  00000+0  74741-4 0  9995
2 44879  97.7811 283.5503 0009853 314.3475  45.6937 14.95570336356792
ETRSS-1                 
1 44880U 19093B   26199.93503205  .00001267  00000+0  11807-3 0  9995
2 44880  97.7829 284.0355 0009876 314.6161  45.4254 14.96021686356806
TIANYAN 01              
1 44881U 19093C   26199.95037867  .00000494  00000+0  61766-4 0  9995
2 44881  97.7515 271.4062 0013190 349.0239  11.0687 14.86563003356134
TIANYAN 02              
1 44882U 19093D   26199.95803502  .00003358  00000+0  23730-3 0  9993
2 44882  97.7931 295.0611 0012431 274.3311  85.6495 15.05552445357390
CBERS 4A                
1 44883U 19093E   26199.97026237  .00000541  00000+0  75883-4 0  9996
2 44883  98.0176 267.4358 0001699 128.0954 232.0412 14.81448935355788
WEILAI 1R               
1 44884U 19093F   26199.92459557  .00002058  00000+0  16622-3 0  9997
2 44884  97.7889 289.8696 0015215 295.5731  64.3919 15.00883659357183
FLORIPASAT-1            
1 44885U 19093G   26199.95989699  .00001987  00000+0  14766-3 0  9993
2 44885  97.7912 294.4303 0010687 326.8112  33.2442 15.04156009357426
SHUNTIAN                
1 44886U 19093H   26199.92846609  .00001475  00000+0  13915-3 0  9991
2 44886  97.8008 287.9292 0010523 325.8513  34.2030 14.95288566356922
ELEKTRO-L 3             
1 44903U 19095A   26200.16483560 -.00000102  00000+0  00000+0 0  9999
2 44903   0.3374  82.3609 0001481  18.7927 331.1277  1.00271683 24025
GONETS-M 14             
1 44905U 19096A   26199.92548035 -.00000029  00000+0 -28339-3 0  9990
2 44905  82.5211  64.9611 0014436  83.0007 277.2714 12.42870863297623
GONETS-M 15             
1 44906U 19096B   26199.95477141  .00000016  00000+0  39590-4 0  9999
2 44906  82.5230  65.4095 0016174 104.5752 255.7123 12.42883307297592
GONETS-M 16             
1 44907U 19096C   26199.98055223  .00000021  00000+0  79503-4 0  9990
2 44907  82.5176  64.3307 0011161 143.3595 216.8250 12.42892727297587
RS-44 & BREEZE-KM R/B   
1 44909U 19096E   26199.82464754  .00000016  00000+0  14406-4 0  9993
2 44909  82.5244 318.6831 0218471  70.5556 291.9010 12.79748895306397
SHIJIAN-20 (SJ-20)      
1 44910U 19097A   26199.75044516  .00000127  00000+0  00000+0 0  9991
2 44910   4.9973  74.6760 0015491  57.6721 119.1269  1.00271182 24018
STARLINK-1114           
1 44927U 20001P   26199.91641591  .00037477  00000+0  26210-3 0  9993
2 44927  53.0397  48.2197 0001277 238.4727 121.6167 15.73913242360602
STARLINK-1123           
1 44930U 20001S   26199.93582936  .00061270  00000+0  62913-3 0  9994
2 44930  53.1393  78.2876 0005834  95.5328 264.6353 15.64341122360205
STARLINK-1094           
1 44941U 20001AD  26199.94645581  .00051506  00000+0  63764-3 0  9999
2 44941  53.1493  54.6063 0005455 118.0937 242.0628 15.59584703360540
STARLINK-1122           
1 44949U 20001AM  26199.82799185  .00054543  00000+0  68736-3 0  9992
2 44949  53.1520  55.7851 0005279 107.9636 252.1953 15.59091638360513
STARLINK-1080           
1 44961U 20001AZ  26199.87414913  .00043471  00000+0  33106-3 0  9995
2 44961  53.0450   8.9801 0001130 215.0294 145.0649 15.71836539361150
STARLINK-1090           
1 44968U 20001BG  26199.91829164  .00025577  00000+0  37754-3 0  9995
2 44968  53.1467  44.2129 0004222 114.9699 245.1752 15.55214812360683
TJS-5                   
1 44978U 20002A   26199.73122530 -.00000349  00000+0  00000+0 0  9991
2 44978   0.0735  78.1313 0007955 338.0337 251.1031  1.00271547 24023
JILIN-1 KUANFU 01       
1 45016U 20003A   26199.94426836  .00001586  00000+0  99022-4 0  9995
2 45016  97.5017 273.2807 0009634 183.7829 176.3330 15.10878955360120
