OBJECT_NAME,OBJECT_ID,EPOCH,MEAN_MOTION,ECCENTRICITY,INCLINATION,RA_OF_ASC_NODE,ARG_OF_PERICENTER,MEAN_ANOMALY,EPHEMERIS_TYPE,CLASSIFICATION_TYPE,NORAD_CAT_ID,ELEMENT_SET_NO,REV_AT_EPOCH,BSTAR,MEAN_MOTION_DOT,MEAN_MOTION_DDOT
COSMOS 2544 [GLONASS-M],2019-088A,2026-07-18T11:16:33.807936,2.13102896,.0012069,65.5825,72.6872,253.1626,106.7768,0,U,44850,999,5138,0,-.34E-6,0
RISAT-2BR1,2019-089F,2026-07-18T22:33:58.284288,15.01170713,.00092371,36.9609,283.2346,79.1312,281.0469,0,U,44857,999,36197,.10699535E-3,.1318E-4,0
IHOPSAT-TD,2019-089H,2026-07-18T09:17:33.965088,15.11960391,.00044639,36.9655,210.3331,150.3693,209.7307,0,U,44859,999,36271,.6879932E-4,.1116E-4,0
BEIDOU-3 M19,2019-090A,2026-07-18T07:35:15.367776,1.86231447,.00166357,56.5859,61.7618,297.6233,226.6293,0,U,44864,999,4481,0,-.65E-6,0
BEIDOU-3 M20,2019-090B,2026-07-18T05:58:35.347872,1.86231410,.00142806,56.5878,61.7982,312.4225,256.4049,0,U,44865,999,4479,0,-.64E-6,0
JCSAT-18 (KACIFIC 1),2019-091A,2026-07-18T15:20:27.001824,1.00266788,.00004363,0.0110,259.2976,311.6935,105.5404,0,U,44868,999,2432,0,0,0
CSG-1,2019-092A,2026-07-18T23:36:44.048160,14.82158476,.00014512,97.8898,23.1274,95.2123,264.9256,0,U,44873,999,35618,.2277793E-4,.129E-5,0
CHEOPS,2019-092B,2026-07-18T18:33:08.427744,14.61983814,.00106322,98.1510,27.6002,8.3398,351.7978,0,U,44874,999,35051,.30111906E-4,.104E-5,0
TIANQIN 1 (CAS-6),2019-093A,2026-07-18T22:30:07.318080,14.95570336,.00098538,97.7811,283.5503,314.3475,45.6937,0,U,44879,999,35679,.74740564E-4,.771E-5,0
ETRSS-1,2019-093B,2026-07-18T22:26:26.769120,14.96021686,.00098765,97.7829,284.0355,314.6161,45.4254,0,U,44880,999,35680,.11806656E-3,.1267E-4,0
TIANYAN 01,2019-093C,2026-07-18T22:48:32.717088,14.86563003,.00131904,97.7515,271.4062,349.0239,11.0687,0,U,44881,999,35613,.61765911E-4,.494E-5,0
TIANYAN 02,2019-093D,2026-07-18T22:59:34.225728,15.05552445,.00124311,97.7931,295.0611,274.3311,85.6495,0,U,44882,999,35739,.23730244E-3,.3358E-4,0
CBERS 4A,2019-093E,2026-07-18T23:17:10.668768,14.81448935,.00016997,98.0176,267.4358,128.0954,232.0412,0,U,44883,999,35578,.7588264E-4,.541E-5,0
WEILAI 1R,2019-093F,2026-07-18T22:11:25.057248,15.00883659,.00152156,97.7889,289.8696,295.5731,64.3919,0,U,44884,999,35718,.16621963E-3,.2058E-4,0
FLORIPASAT-1,2019-093G,2026-07-18T23:02:15.099936,15.04156009,.00106876,97.7912,294.4303,326.8112,33.2442,0,U,44885,999,35742,.14765865E-3,.1987E-4,0
SHUNTIAN,2019-093H,2026-07-18T22:16:59.470176,14.95288566,.00105231,97.8008,287.9292,325.8513,34.2030,0,U,44886,999,35692,.13915474E-3,.1475E-4,0
ELEKTRO-L 3,2019-095A,2026-07-19T03:57:21.795840,1.00271683,.0001481,0.3374,82.3609,18.7927,331.1277,0,U,44903,999,2402,0,-.102E-5,0
GONETS-M 14,2019-096A,2026-07-18T22:12:41.502240,12.42870863,.00144363,82.5211,64.9611,83.0007,277.2714,0,U,44905,999,29762,-.28338532E-3,-.29E-6,0
GONETS-M 15,2019-096B,2026-07-18T22:54:52.249824,12.42883307,.0016174,82.5230,65.4095,104.5752,255.7123,0,U,44906,999,29759,.39590405E-4,.16E-6,0
GONETS-M 16,2019-096C,2026-07-18T23:31:59.712672,12.42892727,.0011161,82.5176,64.3307,143.3595,216.8250,0,U,44907,999,29758,.7950325E-4,.21E-6,0
RS-44 & BREEZE-KM R/B,2019-096E,2026-07-18T19:47:29.547456,12.79748895,.0218471,82.5244,318.6831,70.5556,291.9010,0,U,44909,999,30639,.14406434E-4,.16E-6,0
SHIJIAN-20 (SJ-20),2019-097A,2026-07-18T18:00:38.461824,1.00271182,.0015491,4.9973,74.6760,57.6721,119.1269,0,U,44910,999,2401,0,.127E-5,0
STARLINK-1114,2020-001P,2026-07-18T21:59:38.334624,15.73913242,.00012773,53.0397,48.2197,238.4727,121.6167,0,U,44927,999,36060,.26209534E-3,.37477E-3,0
STARLINK-1123,2020-001S,2026-07-18T22:27:35.656704,15.64341122,.00058347,53.1393,78.2876,95.5328,264.6353,0,U,44930,999,36020,.62913216E-3,.6127E-3,0
STARLINK-1094,2020-001AD,2026-07-18T22:42:53.781984,15.59584703,.00054555,53.1493,54.6063,118.0937,242.0628,0,U,44941,999,36054,.63764095E-3,.51506E-3,0
STARLINK-1122,2020-001AM,2026-07-18T19:52:18.495840,15.59091638,.00052792,53.1520,55.7851,107.9636,252.1953,0,U,44949,999,36051,.68736343E-3,.54543E-3,0
STARLINK-1080,2020-001AZ,2026-07-18T20:58:46.484832,15.71836539,.00011306,53.0450,8.9801,215.0294,145.0649,0,U,44961,999,36115,.33106184E-3,.43471E-3,0
STARLINK-1090,2020-001BG,2026-07-18T22:02:20.397696,15.55214812,.00042226,53.1467,44.2129,114.9699,245.1752,0,U,44968,999,36068,.37754306E-3,.25577E-3,0
TJS-5,2020-002A,2026-07-18T17:32:57.865920,1.00271547,.0007955,0.0735,78.1313,338.0337,251.1031,0,U,44978,999,2402,0,-.349E-5,0
JILIN-1 KUANFU 01,2020-003A,2026-07-18T22:39:44.786304,15.10878955,.00096348,97.5017,273.2807,183.7829,176.3330,0,U,45016,999,36012,.99021537E-4,.1586E-4,0
